MEAN_MOTION;ECCENTRICITY;INCLINATION;RA_OF_ASC_NODE;ARG_OF_PERICENTER;MEAN_ANOMALY;BSTAR;MEAN_MOTION_DOT;MEAN_MOTION_DDOT;TYPE
14.80834078;0.0035615;64.5567;323.0834;230.4021;129.3938;5.2222E-6;-1.07E-6;0;Amateur
14.80834065;0.0035603;64.5566;322.667;230.3867;129.4094;5.1107E-6;-1.08E-6;0;Amateur
14.80834125;0.0035529;64.5565;319.9608;230.2764;129.5208;5.352E-6;-1.06E-6;0;Amateur
14.80834158;0.0035507;64.5564;319.3363;230.2434;129.5542;5.9101E-6;-1.02E-6;0;Amateur
14.80834245;0.0035436;64.5563;316.8382;230.1495;129.6491;6.6267E-6;-9.6E-7;0;Amateur
14.80834296;0.003541;64.5562;316.2137;230.1227;129.6763;7.3667E-6;-9.0E-7;0;Amateur
14.80834481;0.0035281;64.556;311.6338;229.9344;129.8666;8.2877E-6;-8.3E-7;0;Amateur
14.80834481;0.0035281;64.556;311.6338;229.9344;129.8666;8.2877E-6;-8.3E-7;0;Amateur
14.80834733;0.0035186;64.5558;308.5112;229.7978;130.0046;9.9436E-6;-7.0E-7;0;Amateur
14.8083495;0.0035099;64.5557;304.9722;229.6787;130.1251;1.012E-5;-6.9E-7;0;Amateur
14.80834971;0.0035086;64.5556;304.5559;229.6652;130.1387;1.0513E-5;-6.6E-7;0;Amateur
14.80835195;0.0035009;64.5555;301.6414;229.5733;130.2317;1.1324E-5;-5.9E-7;0;Amateur
14.80835206;0.0035002;64.5555;301.4332;229.5662;130.2389;1.1384E-5;-5.9E-7;0;Amateur
14.80835333;0.0034916;64.5553;298.3106;229.4441;130.3623;9.7676E-6;-7.2E-7;0;Amateur
14.80835362;0.0034902;64.5552;297.8942;229.4307;130.3759;9.7232E-6;-7.2E-7;0;Amateur
14.80835463;0.0034838;64.5551;295.3961;229.3286;130.479;9.0661E-6;-7.7E-7;0;Amateur
14.80835496;0.0034819;64.5551;294.7715;229.3057;130.5022;8.996E-6;-7.8E-7;0;Amateur
14.80835584;0.0034753;64.555;292.2733;229.2055;130.6034;8.7677E-6;-7.9E-7;0;Amateur
14.80835674;0.0034699;64.5549;290.3997;229.1369;130.6727;8.9895E-6;-7.8E-7;0;Amateur
14.80835662;0.0034666;64.5548;289.1505;229.0844;130.7258;8.2686E-6;-8.3E-7;0;Amateur
14.80835734;0.003461;64.5548;287.0687;228.9975;130.8136;7.9066E-6;-8.6E-7;0;Amateur
14.80835675;0.0034588;64.5548;286.2359;228.9708;130.8406;6.9614E-6;-9.3E-7;0;Amateur
14.80835674;0.0034581;64.5548;286.0277;228.9616;130.8499;6.9312E-6;-9.4E-7;0;Amateur
14.80835719;0.0034525;64.5547;283.9459;228.8817;130.9307;6.3504E-6;-9.8E-7;0;Amateur
14.80835725;0.0034505;64.5547;283.1132;228.847;130.9657;6.8105E-6;-9.5E-7;0;Amateur
14.80835733;0.0034496;64.5547;282.905;228.8419;130.9709;6.8613E-6;-9.4E-7;0;Amateur
14.80835758;0.003445;64.5547;280.8231;228.736;131.0777;5.9024E-6;-1.02E-6;0;Amateur
14.80835762;0.0034423;64.5547;279.9904;228.7144;131.0996;6.3436E-6;-9.8E-7;0;Amateur
14.80835877;0.0034343;64.5547;276.8676;228.5691;131.2463;6.9405E-6;-9.4E-7;0;Amateur
14.80835949;0.0034291;64.5547;274.994;228.4994;131.3168;6.7338E-6;-9.5E-7;0;Amateur
14.80836006;0.0034248;64.5546;273.7448;228.4595;131.3572;7.5942E-6;-8.8E-7;0;Amateur
14.80836113;0.0034196;64.5547;271.8711;228.3887;131.4288;7.8214E-6;-8.7E-7;0;Amateur
14.80836174;0.0034157;64.5547;270.6221;228.3482;131.4697;8.2299E-6;-8.3E-7;0;Amateur
14.80836276;0.0034104;64.5547;268.7484;228.2737;131.545;7.9584E-6;-8.6E-7;0;Amateur
14.80836293;0.0034074;64.5547;267.7075;228.2371;131.5821;7.7436E-6;-8.7E-7;0;Amateur
14.80836545;0.0034;64.5548;264.793;228.1233;131.6971;9.4823E-6;-7.4E-7;0;Amateur
14.80836803;0.003392;64.5548;261.6703;227.9989;131.8227;1.0686E-5;-6.4E-7;0;Amateur
14.80837006;0.0033851;64.5548;259.3803;227.9211;131.9014;1.12E-5;-6.0E-7;0;Amateur
14.80837041;0.0033833;64.5549;258.5475;227.8945;131.9282;1.1489E-5;-5.8E-7;0;Amateur
14.80837151;0.0033756;64.5549;256.2576;227.809;132.0148;1.0521E-5;-6.5E-7;0;Amateur
14.80837184;0.0033737;64.5549;255.633;227.7887;132.0354;1.111E-5;-6.1E-7;0;Amateur
14.80837262;0.0033655;64.555;252.5103;227.6552;132.1702;9.4262E-6;-7.4E-7;0;Amateur
14.80837348;0.0033582;64.5551;249.5958;227.5515;132.275;8.5539E-6;-8.1E-7;0;Amateur
14.80837484;0.0033515;64.5552;247.3059;227.461;132.3664;9.0512E-6;-7.7E-7;0;Amateur
14.80837489;0.0033508;64.5552;246.4732;227.44;132.3876;9.1455E-6;-7.6E-7;0;Amateur
14.8083763;0.0033443;64.5553;244.1832;227.3598;132.4688;9.503E-6;-7.3E-7;0;Amateur
14.80837802;0.0033353;64.5555;240.4361;227.2395;132.5903;1.0246E-5;-6.8E-7;0;Amateur
14.80837952;0.003326;64.5557;237.3136;227.1039;132.7273;9.717E-6;-7.2E-7;0;Amateur
14.80838138;0.0033154;64.5558;233.9829;226.9639;132.8689;9.5003E-6;-7.3E-7;0;Amateur
14.80838145;0.0033148;64.5558;233.7747;226.9599;132.8729;9.1665E-6;-7.6E-7;0;Amateur
14.80838268;0.0033061;64.556;230.8606;226.8456;132.9884;7.8295E-6;-8.6E-7;0;Amateur
14.80838428;0.0032979;64.556;228.1545;226.7562;133.0789;7.6063E-6;-8.8E-7;0;Amateur
14.80838541;0.0032909;64.5561;225.6566;226.6664;133.1698;6.5512E-6;-9.6E-7;0;Amateur
14.8083858;0.0032887;64.5561;225.0321;226.6444;133.192;7.0797E-6;-9.2E-7;0;Amateur
14.80838851;0.0032787;64.5561;221.4933;226.5027;133.3353;8.602E-6;-8.0E-7;0;Amateur
14.80838998;0.0032723;64.5561;218.9954;226.4151;133.4237;9.4835E-6;-7.3E-7;0;Amateur
14.80839155;0.0032657;64.5561;216.4974;226.3324;133.5073;1.0045E-5;-6.9E-7;0;Amateur
14.80839242;0.003262;64.5561;215.4566;226.2953;133.5449;1.1079E-5;-6.1E-7;0;Amateur
14.80839349;0.0032563;64.5562;213.375;226.2141;133.627;1.134E-5;-5.9E-7;0;Amateur
14.80839396;0.0032531;64.5562;212.3341;226.1866;133.6548;1.1446E-5;-5.8E-7;0;Amateur
14.8083948;0.0032471;64.5562;210.2526;226.1017;133.7406;1.1454E-5;-5.8E-7;0;Amateur
14.80839494;0.0032453;64.5562;209.6281;226.0848;133.7577;1.1419E-5;-5.8E-7;0;Amateur
14.80839558;0.0032372;64.5563;206.922;225.9874;133.8563;1.0421E-5;-6.6E-7;0;Amateur
14.80839597;0.0032289;64.5563;203.7996;225.872;133.9729;8.321E-6;-8.2E-7;0;Amateur
14.80839597;0.0032289;64.5563;203.7996;225.872;133.9729;8.321E-6;-8.2E-7;0;Amateur
14.80839681;0.0032217;64.5562;201.0935;225.7775;134.0684;7.4607E-6;-8.9E-7;0;Amateur
14.80839734;0.0032136;64.5562;198.3875;225.677;134.17;5.7195E-6;-1.03E-6;0;Amateur
14.8083974;0.0032119;64.5562;197.763;225.6627;134.1845;5.8318E-6;-1.02E-6;0;Amateur
14.80839823;0.0032023;64.5561;194.8488;225.5441;134.3044;4.951E-6;-1.09E-6;0;Amateur
14.80839857;0.0032002;64.556;194.2243;225.5259;134.3229;5.1061E-6;-1.08E-6;0;Amateur
14.80839877;0.0031929;64.5559;191.7264;225.4284;134.4214;4.0483E-6;-1.16E-6;0;Amateur
14.80839899;0.0031906;64.5559;191.1019;225.4058;134.4443;3.8889E-6;-1.17E-6;0;Amateur
14.80839999;0.0031839;64.5558;188.604;225.312;134.5391;4.7007E-6;-1.11E-6;0;Amateur
14.80840034;0.0031818;64.5557;187.9794;225.2914;134.5599;4.8563E-6;-1.09E-6;0;Amateur
14.80840195;0.0031739;64.5555;185.2733;225.186;134.6664;6.9785E-6;-9.3E-7;0;Amateur
14.80840376;0.0031657;64.5554;182.359;225.0907;134.7628;9.1901E-6;-7.6E-7;0;Amateur
14.80840508;0.0031598;64.5553;180.4855;225.0198;134.8345;1.0244E-5;-6.7E-7;0;Amateur
14.80840578;0.0031572;64.5553;179.4446;224.9917;134.863;1.1372E-5;-5.8E-7;0;Amateur
14.80840816;0.0031498;64.5552;176.7384;224.9011;134.9546;1.3499E-5;-4.2E-7;0;Amateur
14.80840827;0.0031484;64.5551;176.3221;224.8819;134.974;1.351E-5;-4.2E-7;0;Amateur
14.80840994;0.003139;64.555;173.1995;224.7797;135.0774;1.3547E-5;-4.1E-7;0;Amateur
14.80841205;0.0031299;64.5549;170.077;224.6836;135.1747;1.3803E-5;-3.9E-7;0;Amateur
14.80841238;0.0031284;64.5549;169.6607;224.6729;135.1855;1.3581E-5;-4.1E-7;0;Amateur
14.80841333;0.0031198;64.5548;166.7463;224.5571;135.3025;1.1586E-5;-5.7E-7;0;Amateur
14.80841396;0.0031145;64.5548;165.081;224.483;135.3774;1.013E-5;-6.8E-7;0;Amateur
14.80841401;0.0031104;64.5547;163.6238;224.4356;135.4254;8.7496E-6;-7.9E-7;0;Amateur
14.80841464;0.0031057;64.5547;161.9584;224.3623;135.4993;7.5344E-6;-8.8E-7;0;Amateur
14.80841469;0.0031034;64.5547;161.1258;224.3373;135.5246;7.3773E-6;-9.0E-7;0;Amateur
14.80841486;0.0030963;64.5546;158.8358;224.2467;135.6162;4.7951E-6;-1.1E-6;0;Amateur
14.80841496;0.0030868;64.5544;155.7132;224.1325;135.7317;2.7822E-6;-1.25E-6;0;Amateur
14.80841534;0.0030831;64.5544;154.6723;224.1014;135.7633;3.4452E-6;-1.2E-6;0;Amateur
14.80841625;0.0030744;64.5543;151.7579;223.9924;135.8734;3.859E-6;-1.17E-6;0;Amateur
14.8084179;0.0030644;64.5541;148.427;223.8702;135.9969;5.6477E-6;-1.03E-6;0;Amateur
14.8084179;0.0030644;64.5541;148.427;223.8702;135.9969;5.6477E-6;-1.03E-6;0;Amateur
14.80842109;0.0030554;64.5541;145.5125;223.7658;136.1025;1.0394E-5;-6.6E-7;0;Amateur
14.80842126;0.0030548;64.5541;145.3043;223.7605;136.1079;1.0394E-5;-6.6E-7;0;Amateur
14.80842309;0.0030452;64.5541;142.3897;223.6552;136.2144;1.1696E-5;-5.6E-7;0;Amateur
14.8084248;0.0030388;64.5541;140.308;223.5752;136.2952;1.2825E-5;-4.7E-7;0;Amateur
14.80842824;0.0030352;64.5542;139.2671;223.5352;136.3358;1.9002E-5;1.0E-8;0;Amateur
14.80842852;0.0030276;64.5542;136.769;223.4445;136.4275;1.5808E-5;-2.4E-7;0;Amateur
14.80842832;0.0030253;64.5542;136.1444;223.4361;136.436;1.4079E-5;-3.7E-7;0;Amateur
14.80843022;0.0030182;64.5543;133.6463;223.3347;136.5384;1.3984E-5;-3.8E-7;0;Amateur
14.80843039;0.0030175;64.5543;133.4381;223.3276;136.5457;1.392E-5;-3.8E-7;0;Amateur
14.80843261;0.0030084;64.5544;130.5236;223.2282;136.6462;1.3345E-5;-4.3E-7;0;Amateur
14.80843305;0.003;64.5545;128.0255;223.1335;136.742;9.7053E-6;-7.1E-7;0;Amateur
14.80843412;0.0029915;64.5546;125.1111;223.0304;136.8462;7.3861E-6;-8.9E-7;0;Amateur
14.8084344;0.0029878;64.5546;124.0702;223.0046;136.8724;6.9732E-6;-9.3E-7;0;Amateur
14.80843486;0.0029811;64.5547;121.9884;222.9036;136.9744;5.5006E-6;-1.04E-6;0;Amateur
14.80843509;0.0029779;64.5547;120.9475;222.8924;136.9858;5.2294E-6;-1.06E-6;0;Amateur
14.80843523;0.0029729;64.5547;119.4903;222.826;137.053;4.1087E-6;-1.15E-6;0;Amateur
14.80843514;0.0029705;64.5548;118.8658;222.8018;137.0774;3.7647E-6;-1.18E-6;0;Amateur
14.80843516;0.0029687;64.5548;118.2412;222.7811;137.0983;3.6827E-6;-1.18E-6;0;Amateur
14.80843524;0.0029612;64.5549;115.7431;222.6876;137.1929;2.7591E-6;-1.25E-6;0;Amateur
14.80843527;0.0029586;64.5549;114.9104;222.6832;137.1975;2.6532E-6;-1.26E-6;0;Amateur
14.80843552;0.0029538;64.555;113.4532;222.6162;137.2651;2.6542E-6;-1.26E-6;0;Amateur
14.80843555;0.0029525;64.555;112.6205;222.5877;137.2939;2.867E-6;-1.25E-6;0;Amateur
